{
    "links": {
        "self": "http://www.neowsapp.com/rest/v1/neo/3884101?api_key=iIulBulltgU6a56xZRHN4H3l9WmuAYTsLGpBGhQ2"
    },
    "id": "3884101",
    "neo_reference_id": "3884101",
    "name": "(2019 UC10)",
    "designation": "2019 UC10",
    "nasa_jpl_url": "http://ssd.jpl.nasa.gov/sbdb.cgi?sstr=3884101",
    "absolute_magnitude_h": 22.4,
    "estimated_diameter": {
        "kilometers": {
            "estimated_diameter_min": 0.0880146521,
            "estimated_diameter_max": 0.1968067451
        },
        "meters": {
            "estimated_diameter_min": 88.0146520901,
            "estimated_diameter_max": 196.8067450894
        },
        "miles": {
            "estimated_diameter_min": 0.0546897524,
            "estimated_diameter_max": 0.122290004
        },
        "feet": {
            "estimated_diameter_min": 288.7619911632,
            "estimated_diameter_max": 645.6914415591
        }
    },
    "is_potentially_hazardous_asteroid": false,
    "close_approach_data": [
        {
            "close_approach_date": "2017-08-21",
            "close_approach_date_full": "2017-Aug-21 20:02",
            "epoch_date_close_approach": 1503345720000,
            "relative_velocity": {
                "kilometers_per_second": "4.9888967365",
                "kilometers_per_hour": "17960.0282514393",
                "miles_per_hour": "11159.6631099013"
            },
            "miss_distance": {
                "astronomical": "1.9770775579",
                "lunar": "769.0831700231",
                "kilometers": "295766591.486641673",
                "miles": "183780837.9191061674"
            },
            "orbiting_body": "Juptr"
        },
        {
            "close_approach_date": "2019-10-26",
            "close_approach_date_full": "2019-Oct-26 06:22",
            "epoch_date_close_approach": 1572070920000,
            "relative_velocity": {
                "kilometers_per_second": "2.64269235",
                "kilometers_per_hour": "9513.6924599775",
                "miles_per_hour": "5911.438517701"
            },
            "miss_distance": {
                "astronomical": "0.3764778613",
                "lunar": "146.4498880457",
                "kilometers": "56320286.152635431",
                "miles": "34995803.0382977078"
            },
            "orbiting_body": "Earth"
        },
        {
            "close_approach_date": "2149-05-09",
            "close_approach_date_full": "2149-May-09 12:26",
            "epoch_date_close_approach": 5659849560000,
            "relative_velocity": {
                "kilometers_per_second": "5.3104074595",
                "kilometers_per_hour": "19117.4668541092",
                "miles_per_hour": "11878.8504460991"
            },
            "miss_distance": {
                "astronomical": "1.9502593449",
                "lunar": "758.6508851661",
                "kilometers": "291754643.944635363",
                "miles": "181287929.3142114894"
            },
            "orbiting_body": "Juptr"
        },
        {
            "close_approach_date": "2170-10-19",
            "close_approach_date_full": "2170-Oct-19 04:50",
            "epoch_date_close_approach": 6336593400000,
            "relative_velocity": {
                "kilometers_per_second": "1.2378960554",
                "kilometers_per_hour": "4456.4257992793",
                "miles_per_hour": "2769.0496862244"
            },
            "miss_distance": {
                "astronomical": "0.4776068684",
                "lunar": "185.7890718076",
                "kilometers": "71448970.210010308",
                "miles": "44396331.4032579304"
            },
            "orbiting_body": "Earth"
        }
    ],
    "orbital_data": {
        "orbit_id": "4",
        "orbit_determination_date": "2019-11-28 08:10:43",
        "first_observation_date": "2019-10-24",
        "last_observation_date": "2019-11-23",
        "data_arc_in_days": 30,
        "observations_used": 23,
        "orbit_uncertainty": "7",
        "minimum_orbit_intersection": ".308987",
        "jupiter_tisserand_invariant": "3.080",
        "epoch_osculation": "2459000.5",
        "eccentricity": ".5440051447650157",
        "semi_major_axis": "2.80790653962812",
        "inclination": "5.48013870144206",
        "ascending_node_longitude": "133.5124126219602",
        "orbital_period": "1718.590470670676",
        "perihelion_distance": "1.28039093605109",
        "perihelion_argument": "270.8693422360892",
        "aphelion_distance": "4.335422143205149",
        "perihelion_time": "2458807.880511687152",
        "mean_anomaly": "40.34877242486065",
        "mean_motion": ".2094739882151859",
        "equinox": "J2000",
        "orbit_class": {
            "orbit_class_type": "AMO",
            "orbit_class_description": "Near-Earth asteroid orbits similar to that of 1221 Amor",
            "orbit_class_range": "1.017 AU < q (perihelion) < 1.3 AU"
        }
    },
    "is_sentry_object": false
}